[{"OBJECT_NAME":"SALSAT","OBJECT_ID":"2020-068K","EPOCH":"2026-03-09T22:26:21.804576","MEAN_MOTION":15.28191989,"ECCENTRICITY":0.00082652,"INCLINATION":97.8859,"RA_OF_ASC_NODE":66.0795,"ARG_OF_PERICENTER":295.8051,"MEAN_ANOMALY":64.2334,"EPHEMERIS_TYPE":0,"CLASSIFICATION_TYPE":"U","NORAD_CAT_ID":46495,"ELEMENT_SET_NO":999,"REV_AT_EPOCH":30019,"BSTAR":0.00040842582,"MEAN_MOTION_DOT":0.00011156,"MEAN_MOTION_DDOT":0},{"OBJECT_NAME":"STARLINK-32333","OBJECT_ID":"2024-191F","EPOCH":"2026-03-09T08:00:01.000224","MEAN_MOTION":15.2757601,"ECCENTRICITY":0.00014201,"INCLINATION":43.0011,"RA_OF_ASC_NODE":160.1789,"ARG_OF_PERICENTER":267.7493,"MEAN_ANOMALY":310.2219,"EPHEMERIS_TYPE":0,"CLASSIFICATION_TYPE":"U","NORAD_CAT_ID":61626,"ELEMENT_SET_NO":999,"REV_AT_EPOCH":581,"BSTAR":0.00013879137,"MEAN_MOTION_DOT":3.559e-5,"MEAN_MOTION_DDOT":0}]
